{
"type": "FeatureCollection",
"name": "pontefirme",
"crs": { "type": "name", "properties": { "name": "urn:ogc:def:crs:OGC:1.3:CRS84" } },
"features": [
{ "type": "Feature", "properties": { "Nome": "CAI N'ÁGUA", "Tamannho": 260, "Bairro": "Novo Horizonte", "Municipío": "Macapá", "Status": "Concluída", "Executado": 241.9, "FaltaExe": 18.1 }, "geometry": { "type": "MultiLineString", "coordinates": [ [ [ -51.058760033917153, 0.087997940319426 ], [ -51.056381939183787, 0.088086371820405 ] ] ] } },
{ "type": "Feature", "properties": { "Nome": "PONTE DO JARBAS", "Tamannho": 321, "Bairro": "Novo Horizonte", "Municipío": "Macapá", "Status": "Concluída", "Executado": 165.9, "FaltaExe": 155.1 }, "geometry": { "type": "MultiLineString", "coordinates": [ [ [ -51.056994240811932, 0.090252272734851 ], [ -51.056964611939513, 0.089829955869382 ] ] ] } },
{ "type": "Feature", "properties": { "Nome": "1ª DA PIAUI", "Tamannho": 96, "Bairro": "Pacoval", "Municipío": "Macapá", "Status": "Concluída", "Executado": 78.7, "FaltaExe": 17.3 }, "geometry": { "type": "MultiLineString", "coordinates": [ [ [ -51.048367750627982, 0.055498632332741 ], [ -51.048129062382756, 0.055431745814071 ], [ -51.047944509643287, 0.055414404964626 ], [ -51.047683675105937, 0.055392109604862 ], [ -51.047447447625643, 0.055404496224502 ], [ -51.047238287850362, 0.055382200820901 ], [ -51.04702917925875, 0.055361827790136 ], [ -51.04694753902794, 0.055349651500241 ], [ -51.0467812347907, 0.05524412322207 ] ] ] } },
{ "type": "Feature", "properties": { "Nome": "2ª DA PIAUÍ", "Tamannho": 210, "Bairro": "Pacoval", "Municipío": "Macapá", "Status": "Concluída", "Executado": 213.5, "FaltaExe": -3.5 }, "geometry": { "type": "MultiLineString", "coordinates": [ [ [ -51.048250129124014, 0.055621208527085 ], [ -51.048108392678174, 0.055679870769636 ], [ -51.047949332874843, 0.055729020249067 ], [ -51.047788698215854, 0.055771827878085 ], [ -51.047642237204506, 0.055813050032429 ], [ -51.047481602517685, 0.055822562940486 ], [ -51.047183955884513, 0.055832075958996 ], [ -51.046887884091134, 0.055830490734543 ], [ -51.046651656551568, 0.055773414259298 ], [ -51.046442201461161, 0.055716337761473 ] ] ] } },
{ "type": "Feature", "properties": { "Nome": "TRAV. GONZAGUINHA", "Tamannho": 478, "Bairro": "Zerão", "Municipío": "Macapá", "Status": "Concluída", "Executado": 441.0, "FaltaExe": 37.0 }, "geometry": { "type": "MultiLineString", "coordinates": [ [ [ -51.096865931183231, -0.010478756756635 ], [ -51.096868829041739, -0.010922241952156 ], [ -51.096854602659967, -0.011413290988267 ], [ -51.096843636744147, -0.011598371386399 ], [ -51.096829445582372, -0.011900994071399 ], [ -51.096830735747261, -0.012042979956728 ], [ -51.09684064386235, -0.012131091209028 ], [ -51.096906247914148, -0.012373192575937 ], [ -51.096992927645069, -0.012709056635468 ], [ -51.09707759156516, -0.013020568010708 ], [ -51.097127986764626, -0.013225536408662 ], [ -51.097180276979174, -0.013501969215323 ], [ -51.097211965398841, -0.013744005000999 ], [ -51.09724357330942, -0.013967400268429 ], [ -51.097260344859656, -0.014098580048112 ], [ -51.097257609839197, -0.014155156202803 ], [ -51.097256784169183, -0.014163884204801 ] ] ] } },
{ "type": "Feature", "properties": { "Nome": "1ª DO UNIVERSIDADE", "Tamannho": 300, "Bairro": "Universidade", "Municipío": "Macapá", "Status": "Concluída", "Executado": 319.0, "FaltaExe": -19.0 }, "geometry": { "type": "MultiLineString", "coordinates": [ [ [ -51.09425048641063, -0.006723053450562 ], [ -51.094126535691508, -0.006725519602784 ] ], [ [ -51.094126535691508, -0.006725519602784 ], [ -51.093963612168928, -0.006728761166896 ], [ -51.093679005707635, -0.006745884204152 ], [ -51.093300986168714, -0.006751092517727 ], [ -51.092844772489357, -0.006775617710873 ], [ -51.092561446999177, -0.006800679474044 ] ], [ [ -51.092561446999177, -0.006800679474044 ], [ -51.092505004028084, -0.006805672178281 ], [ -51.092135780986126, -0.00681566065612 ], [ -51.092018683751824, -0.006823667015745 ] ], [ [ -51.092018683751824, -0.006823667015745 ], [ -51.091833174001131, -0.006836350985492 ], [ -51.091766275284286, -0.006842645351761 ] ], [ [ -51.091766275284286, -0.006842645351761 ], [ -51.091454029416255, -0.006872023940083 ], [ -51.091389193656575, -0.006878539270539 ] ] ] } },
{ "type": "Feature", "properties": { "Nome": "MARIA QUITÉRIA", "Tamannho": 100, "Bairro": "Buritizal", "Municipío": "Macapá", "Status": "Concluída", "Executado": 64.0, "FaltaExe": 36.0 }, "geometry": { "type": "MultiLineString", "coordinates": [ [ [ -51.080623192811188, 0.028759918976815 ], [ -51.080632151618126, 0.028542920418767 ], [ -51.080750029612432, 0.028542057669779 ] ], [ [ -51.080623192811188, 0.028759918976815 ], [ -51.080607260198711, 0.028763608770287 ], [ -51.080456500713971, 0.028824725747741 ] ], [ [ -51.080623189309613, 0.028760003791544 ], [ -51.080623192811188, 0.028759918976815 ] ], [ [ -51.081038978439913, 0.028787948968115 ], [ -51.080993430543131, 0.028773491034722 ], [ -51.080863310104, 0.02874699096241 ], [ -51.080685344594571, 0.028760860866976 ], [ -51.08063039895417, 0.028758250124351 ], [ -51.080623192811188, 0.028759918976815 ] ] ] } },
{ "type": "Feature", "properties": { "Nome": "CARLOS DRUMOND", "Tamannho": 320, "Bairro": "Congós", "Municipío": "Macapá", "Status": "Concluída", "Executado": 334.0, "FaltaExe": -14.0 }, "geometry": { "type": "MultiLineString", "coordinates": [ [ [ -51.099153238596728, 0.009909540111487 ], [ -51.099262789810695, 0.009896978884888 ], [ -51.09945080995513, 0.009861735205511 ], [ -51.09992543082879, 0.009771504834825 ], [ -51.100440170599597, 0.009659048794415 ], [ -51.10073905175399, 0.009596742066461 ], [ -51.101048499412478, 0.009537474684482 ], [ -51.10130511452374, 0.009426538399763 ], [ -51.101460603621597, 0.009362971043694 ], [ -51.10160464080117, 0.009302816612007 ] ] ] } },
{ "type": "Feature", "properties": { "Nome": "24ª DO CONGÓS", "Tamannho": 372, "Bairro": "Congós", "Municipío": "Macapá", "Status": "Concluída", "Executado": 372.0, "FaltaExe": 0.0 }, "geometry": { "type": "MultiLineString", "coordinates": [ [ [ -51.098882082803627, 0.010262549873377 ], [ -51.099264175628889, 0.01148303808657 ], [ -51.099287761619784, 0.011594639151428 ], [ -51.099306630426476, 0.011722861654216 ], [ -51.099379746955975, 0.011941314791861 ], [ -51.09960145511657, 0.012513567016607 ], [ -51.099662778657759, 0.012686904828113 ], [ -51.099700516222981, 0.01279613139428 ], [ -51.099851466478839, 0.013211667238474 ] ] ] } },
{ "type": "Feature", "properties": { "Nome": "BENEDITO LINO", "Tamannho": 341, "Bairro": "Congós", "Municipío": "Macapá", "Status": "Concluída", "Executado": 341.0, "FaltaExe": 0.0 }, "geometry": { "type": "MultiLineString", "coordinates": [ [ [ -51.098719641143731, 0.008522819286042 ], [ -51.099575509257946, 0.008339212030559 ], [ -51.100214688510889, 0.008203865888803 ], [ -51.100666370692508, 0.008088848478825 ], [ -51.10108742721831, 0.008011041059375 ], [ -51.101341068204995, 0.007966704023746 ] ] ] } },
{ "type": "Feature", "properties": { "Nome": "ESTRELA DALVA", "Tamannho": 181, "Bairro": "Jardim Marco Zero", "Municipío": "Macapá", "Status": "Concluída", "Executado": 142.4, "FaltaExe": 38.6 }, "geometry": { "type": "MultiLineString", "coordinates": [ [ [ -51.085808937075114, 0.006593200165211 ], [ -51.085841783887851, 0.006935552491112 ], [ -51.085863037709537, 0.007157303429165 ], [ -51.085901543329911, 0.007552908907039 ], [ -51.085904075886631, 0.007721436883399 ], [ -51.085912892348105, 0.00827382174512 ] ] ] } },
{ "type": "Feature", "properties": { "Nome": "CMTE. MARAPANIM", "Tamannho": 561, "Bairro": "Congós", "Municipío": "Macapá", "Status": "Em Execução", "Executado": 175.0, "FaltaExe": 386.0 }, "geometry": { "type": "MultiLineString", "coordinates": [ [ [ -51.092179185896441, 0.012455212569193 ], [ -51.092273966473144, 0.012909834826268 ], [ -51.092418402144723, 0.013613558632387 ], [ -51.092508333798342, 0.014056643989177 ], [ -51.092583838889638, 0.014420490515352 ] ] ] } },
{ "type": "Feature", "properties": { "Nome": "21ª DO CONGÓS", "Tamannho": 605, "Bairro": "Congós", "Municipío": "Macapá", "Status": "Em Execução", "Executado": 100.0, "FaltaExe": 505.0 }, "geometry": { "type": "MultiLineString", "coordinates": [ [ [ -51.096574930204696, 0.007686852370667 ], [ -51.096555550991667, 0.007501509487883 ], [ -51.096465178043829, 0.006944357081674 ], [ -51.096385800898062, 0.006654675918713 ], [ -51.096291509533536, 0.00630897438134 ], [ -51.096127392070279, 0.005738618250128 ], [ -51.095929506390178, 0.005044448190083 ], [ -51.095931406425599, 0.004663667269036 ], [ -51.095930771384957, 0.004483385683128 ], [ -51.095893940394589, 0.004319086511916 ], [ -51.095878699984091, 0.004243649538035 ], [ -51.095846314113878, 0.004096611368734 ] ] ] } },
{ "type": "Feature", "properties": { "Nome": "21ª DO CONGÓS", "Tamannho": 343, "Bairro": "Congós", "Municipío": "Macapá", "Status": "Em Execução", "Executado": 124.0, "FaltaExe": 219.0 }, "geometry": { "type": "MultiLineString", "coordinates": [ [ [ -51.097589806184729, 0.012065973648123 ], [ -51.097868491586567, 0.013142273421029 ], [ -51.098419841089353, 0.014248317550567 ] ] ] } },
{ "type": "Feature", "properties": { "Nome": "PASS. MUNICIPALISTA", "Tamannho": 209, "Bairro": "Buritizal", "Municipío": "Macapá", "Status": "Concluída", "Executado": 156.0, "FaltaExe": 53.0 }, "geometry": { "type": "MultiLineString", "coordinates": [ [ [ -51.081629202346882, 0.025082339360076 ], [ -51.081674351902436, 0.026110879893328 ], [ -51.081696281400895, 0.026157631722664 ], [ -51.081740140371046, 0.026209578186833 ], [ -51.081791739162014, 0.026274511268987 ], [ -51.081817538571912, 0.026329055069441 ], [ -51.081844627942125, 0.026370612245768 ], [ -51.081878167164476, 0.02642515604094 ], [ -51.081945245586773, 0.026499829079598 ], [ -51.081981364731334, 0.026530996951101 ], [ -51.082000069288831, 0.026547879548711 ], [ -51.082000714273185, 0.02654787954828 ] ] ] } },
{ "type": "Feature", "properties": { "Nome": "23ª CONGÓS E", "Tamannho": 325, "Bairro": "Congós", "Municipío": "Macapá", "Status": "Em Execução", "Executado": 100.0, "FaltaExe": 225.0 }, "geometry": { "type": "MultiLineString", "coordinates": [ [ [ -51.097434468370174, 0.005671015505961 ], [ -51.09744059180786, 0.005757743670518 ], [ -51.097447956160067, 0.005828352927107 ], [ -51.097451550672581, 0.005904257878662 ], [ -51.097449413718564, 0.006016267330585 ], [ -51.097443249387467, 0.006106597534625 ], [ -51.097454208239995, 0.006178310060102 ], [ -51.097467221882091, 0.006287947479454 ], [ -51.097491194376886, 0.006465160162844 ], [ -51.097511742223034, 0.006579624385241 ], [ -51.097528865431677, 0.006691330434051 ], [ -51.097553522841039, 0.00679407241527 ], [ -51.097568357598476, 0.006869231882973 ], [ -51.09756743861584, 0.006868265937411 ], [ -51.09756669624548, 0.006867518564149 ], [ -51.097560014913967, 0.006869760685765 ] ], [ [ -51.09746733146995, 0.006285106560108 ], [ -51.097467589708188, 0.006284567319759 ], [ -51.097469074448625, 0.00628456731948 ], [ -51.097468332078542, 0.006285314693036 ], [ -51.097469074448483, 0.006283819946063 ], [ -51.097469074448483, 0.006283819946063 ], [ -51.097470559189475, 0.00628680943945 ] ], [ [ -51.097568382954883, 0.006869230097558 ], [ -51.097568357598476, 0.006869231882973 ], [ -51.097577495327037, 0.006915432071833 ], [ -51.097602152737771, 0.007021621770395 ], [ -51.097625440296667, 0.007140912796189 ], [ -51.097645988143448, 0.007247792038855 ], [ -51.097646971690374, 0.007255762937863 ], [ -51.097644274014314, 0.007256526409342 ], [ -51.097644274014236, 0.007256152722636 ] ], [ [ -51.097647494985559, 0.007255652834765 ], [ -51.097646971690374, 0.007255762937863 ], [ -51.097659686716788, 0.007358808544069 ], [ -51.097705576906471, 0.007582220637104 ], [ -51.09775968622948, 0.007815286336978 ], [ -51.097833262492962, 0.008115604073328 ], [ -51.097860973404345, 0.008240982903807 ], [ -51.097880233598381, 0.008377953824772 ], [ -51.097931191728456, 0.008631442882692 ] ] ] } },
{ "type": "Feature", "properties": { "Nome": "AV. CABO VELHO", "Tamannho": 380, "Bairro": "Congós", "Municipío": "Macapá", "Status": "Em Execução", "Executado": 230.0, "FaltaExe": 150.0 }, "geometry": { "type": "MultiLineString", "coordinates": [ [ [ -51.09525349414902, 0.012364325415239 ], [ -51.095255000344764, 0.012372312048739 ] ], [ [ -51.095255000344764, 0.012372312048739 ], [ -51.095273263807037, 0.01246915442703 ], [ -51.095274191442492, 0.012491878815502 ] ], [ [ -51.095274191442492, 0.012491878815502 ], [ -51.095278195328866, 0.012589962460027 ], [ -51.095280387122251, 0.012659468451767 ], [ -51.095287510395607, 0.012733387520651 ], [ -51.095296277492317, 0.012799583700787 ], [ -51.095310524010422, 0.01286853805314 ], [ -51.095317647273113, 0.012912668839381 ], [ -51.095327510248865, 0.012964522512628 ], [ -51.095342852653204, 0.01303844157816 ], [ -51.095354359465631, 0.013117876993728 ], [ -51.095363126555974, 0.013165317588401 ], [ -51.095412955079546, 0.013285780831716 ], [ -51.095467749341196, 0.01344006618502 ], [ -51.095516550484277, 0.013585732245512 ], [ -51.095524255939964, 0.013639171869329 ], [ -51.095543091482028, 0.013727950596731 ], [ -51.095566207826167, 0.013828796334776 ], [ -51.09557819407857, 0.013880512097757 ], [ -51.095588376259727, 0.013896503337182 ] ], [ [ -51.095588376259727, 0.013896503337182 ], [ -51.09562100207593, 0.01394774257848 ], [ -51.095619104438747, 0.013961289277131 ] ], [ [ -51.095619104438747, 0.013961289277131 ], [ -51.095611584349669, 0.01401497308046 ], [ -51.095634700687995, 0.014099442158309 ], [ -51.09564754309914, 0.0141485721324 ], [ -51.095660097970324, 0.014178816577601 ] ], [ [ -51.095660097970324, 0.014178816577601 ], [ -51.095671515586211, 0.014206321396399 ], [ -51.095691984038311, 0.014264242008072 ] ], [ [ -51.095691984038311, 0.014264242008072 ], [ -51.09570319352116, 0.014295962047143 ], [ -51.095718604414401, 0.014353711314545 ], [ -51.095718867754961, 0.014355036888318 ] ], [ [ -51.095718867754961, 0.014355036888318 ], [ -51.095734015316026, 0.014431284959435 ], [ -51.09574216633137, 0.014482308991236 ] ], [ [ -51.09574216633137, 0.014482308991236 ], [ -51.095747371437774, 0.014514892111402 ], [ -51.095759015222235, 0.014554196089807 ], [ -51.095779754491403, 0.014598510739562 ] ], [ [ -51.095779754491403, 0.014598510739562 ], [ -51.095792576701207, 0.014625908606396 ], [ -51.095805626631041, 0.014661323713048 ] ], [ [ -51.095805626631041, 0.014661323713048 ], [ -51.095808330052392, 0.01466866030078 ], [ -51.095865747809064, 0.014872564532883 ] ], [ [ -51.095865747809064, 0.014872564532883 ], [ -51.095870658551789, 0.014890003758438 ], [ -51.095871241756264, 0.014892167306838 ] ], [ [ -51.095871241756264, 0.014892167306838 ], [ -51.095920658341534, 0.015075490955328 ], [ -51.095954209514346, 0.015213280587468 ] ], [ [ -51.095954209514346, 0.015213280587468 ], [ -51.095956407551704, 0.015222307596941 ] ], [ [ -51.095956407551704, 0.015222307596941 ], [ -51.095963808853398, 0.015252703632011 ], [ -51.095987300523532, 0.015332005348821 ] ], [ [ -51.095987300523532, 0.015332005348821 ], [ -51.096000902015163, 0.01537792041675 ], [ -51.096037053415813, 0.015533649504208 ] ] ] } },
{ "type": "Feature", "properties": { "Nome": "23ª  CONGÓS", "Tamannho": 285, "Bairro": "Congós", "Municipío": "Macapá", "Status": "Em Execução", "Executado": 75.0, "FaltaExe": 210.0 }, "geometry": { "type": "MultiLineString", "coordinates": [ [ [ -51.098502926840325, 0.011084283957651 ], [ -51.098523809381803, 0.011188920882054 ], [ -51.09853879218938, 0.011247101110714 ], [ -51.098555915400489, 0.011320365102878 ], [ -51.098577319409813, 0.011397938740418 ], [ -51.098593372419877, 0.011464738262399 ], [ -51.098613706229621, 0.01154015707665 ], [ -51.098636180449468, 0.011648975653775 ], [ -51.098686479877564, 0.011842909747595 ], [ -51.098707883893461, 0.011935567148698 ], [ -51.098747481319606, 0.012096101481967 ], [ -51.098769955536149, 0.012190913705801 ], [ -51.098797780755845, 0.012305119338588 ], [ -51.098818114569077, 0.012384847798781 ], [ -51.098850220585611, 0.012497976017862 ], [ -51.098876975589334, 0.01256477553464 ], [ -51.098875905407631, 0.012611104239206 ], [ -51.098887677608829, 0.012639116939568 ], [ -51.098915502798889, 0.012671439280591 ], [ -51.098937976998968, 0.012718845387716 ], [ -51.098983995599276, 0.012815812424838 ], [ -51.099010750599021, 0.012870760412136 ], [ -51.099042856619249, 0.012989275688678 ], [ -51.099070681834, 0.013084087908894 ], [ -51.09909743685629, 0.013195061305121 ], [ -51.099150946830896, 0.013239235164 ], [ -51.099195895230011, 0.013327582906482 ], [ -51.099233352244035, 0.013437478885944 ], [ -51.099285792053372, 0.013564613446424 ] ] ] } },
{ "type": "Feature", "properties": { "Nome": "AV. JOÃO GUERRA", "Tamannho": 200, "Bairro": "Congós", "Municipío": "Macapá", "Status": "Concluída", "Executado": 200.0, "FaltaExe": 0.0 }, "geometry": { "type": "MultiLineString", "coordinates": [ [ [ -51.095821920544232, 0.012463418948042 ], [ -51.095819972973551, 0.012520559700182 ], [ -51.095819356551019, 0.012554174949288 ], [ -51.095822609984367, 0.012629886831641 ], [ -51.095839835929958, 0.01268043036866 ], [ -51.095863397481786, 0.012802893297178 ], [ -51.095874904282738, 0.012853092064405 ], [ -51.095891890505342, 0.012907152273468 ], [ -51.095901753486629, 0.012973900086789 ], [ -51.095913808235686, 0.013039544629579 ], [ -51.095922027383253, 0.013085330319108 ], [ -51.095966033990393, 0.013122875949153 ], [ -51.095996855743358, 0.013161662762694 ], [ -51.096077334756671, 0.013240960241056 ], [ -51.096085642946662, 0.013290869400794 ], [ -51.096094410032983, 0.013327497951322 ], [ -51.096103615474533, 0.013368098272536 ], [ -51.096126992077579, 0.013437480136342 ], [ -51.096151820724238, 0.013499539046881 ], [ -51.096163806978431, 0.013557288315243 ], [ -51.09616723163338, 0.013601246715775 ], [ -51.096180930206863, 0.013659857912831 ], [ -51.096190720581994, 0.013713214789479 ], [ -51.096244080560695, 0.013753226222401 ], [ -51.096297367934753, 0.013787423423898 ], [ -51.096319628103153, 0.013847758476013 ], [ -51.096330758201674, 0.013913265109296 ], [ -51.096352162219674, 0.013995148397735 ], [ -51.096370141591819, 0.014056345380831 ], [ -51.096372710084481, 0.014091684486958 ], [ -51.096384696342525, 0.014156329190271 ], [ -51.096413377740021, 0.014296177230395 ], [ -51.096426220163721, 0.014374828286595 ], [ -51.096435851983991, 0.014439472990689 ], [ -51.096450834806951, 0.014519201457702 ], [ -51.096462607036067, 0.014607549220411 ], [ -51.096472238856791, 0.01467219392435 ], [ -51.096485081283696, 0.014756232039318 ], [ -51.096501134307097, 0.01483703791739 ], [ -51.096509695922947, 0.014887676268256 ], [ -51.096521468153036, 0.014976024030677 ], [ -51.096535380784665, 0.015070836262898 ], [ -51.096530029840892, 0.015189351563285 ], [ -51.096525749089984, 0.015292783098022 ], [ -51.096524678908089, 0.015331569923291 ], [ -51.096520783434023, 0.015445387707665 ] ], [ [ -51.096176062307634, 0.013704081377323 ], [ -51.096166667306839, 0.01373642483544 ], [ -51.096154026302329, 0.01378057217741 ], [ -51.096151138660808, 0.013812627679577 ], [ -51.09614085857708, 0.0138586880109 ], [ -51.096136938632789, 0.013874957515888 ], [ -51.096188593821587, 0.013903666169741 ], [ -51.096211272616138, 0.013959602485536 ], [ -51.096216615061699, 0.013986563636428 ], [ -51.096200519275229, 0.014011283779651 ], [ -51.09618551937551, 0.014042692494995 ] ] ] } },
{ "type": "Feature", "properties": { "Nome": "ANÔNIO CASTRO MONTEIRO", "Tamannho": 265, "Bairro": "Universidade", "Municipío": "Macapá", "Status": "Concluída", "Executado": 252.7, "FaltaExe": 12.3 }, "geometry": { "type": "MultiLineString", "coordinates": [ [ [ -51.094071635718258, -0.008803411405642 ], [ -51.093730419496801, -0.008804723132406 ], [ -51.093500925400491, -0.008808079714924 ], [ -51.093442579443334, -0.008808079729655 ], [ -51.093144181561897, -0.008869056667254 ], [ -51.093094170743079, -0.008877447991269 ], [ -51.092626847400986, -0.008873811874448 ], [ -51.092357344639495, -0.008875909770155 ], [ -51.092156606756149, -0.008875909820564 ], [ -51.091937809408122, -0.008876609151367 ], [ -51.091845611677712, -0.008874830216355 ] ] ] } },
{ "type": "Feature", "properties": { "Nome": "GUARANIS", "Tamannho": 400, "Bairro": "Muca", "Municipío": "Macapá", "Status": "Concluída", "Executado": 298.9, "FaltaExe": 101.1 }, "geometry": { "type": "MultiLineString", "coordinates": [ [ [ -51.07481536422322, 0.016073113412454 ], [ -51.075186549578234, 0.016107492472639 ], [ -51.075774507176909, 0.016168776908833 ], [ -51.075970493038852, 0.016182229564277 ], [ -51.076309014114557, 0.016321240970085 ] ] ] } },
{ "type": "Feature", "properties": { "Nome": "PONTE DO APERTADINHO", "Tamannho": 1130, "Bairro": "Fazendinha", "Municipío": "Macapá", "Status": "Concluída", "Executado": 1039.13, "FaltaExe": 90.87 }, "geometry": { "type": "MultiLineString", "coordinates": [ [ [ -51.116289406603357, -0.051728206801176 ], [ -51.116276043600188, -0.05153986884254 ], [ -51.116161718633066, -0.051551827019779 ], [ -51.116074860012695, -0.050815664818466 ], [ -51.115686600673527, -0.050928518837379 ] ], [ [ -51.115720750774315, -0.051529406639124 ], [ -51.115688086031312, -0.051273805144693 ], [ -51.115686600673527, -0.050928518837379 ] ], [ [ -51.114515698138312, -0.051308186424413 ], [ -51.114688484707493, -0.051268388501046 ] ], [ [ -51.115686600673527, -0.050928518837379 ], [ -51.115707386607241, -0.050687864705119 ], [ -51.115290174698778, -0.050726728848912 ], [ -51.115177334524247, -0.050770076683965 ], [ -51.114690340101426, -0.050968878771239 ], [ -51.114746760485204, -0.051113869030184 ], [ -51.114656191394971, -0.051148248350709 ], [ -51.114718550895027, -0.051379933865726 ], [ -51.114904143337988, -0.051335091150814 ], [ -51.115031831630894, -0.051690840459445 ], [ -51.115215939291488, -0.051623576555439 ] ], [ [ -51.115178448074886, -0.050767554298171 ], [ -51.115076742792318, -0.050437215622577 ] ] ] } },
{ "type": "Feature", "properties": { "Nome": "PONTE DO APERTADINHO", "Tamannho": 350, "Bairro": "Fazendinha", "Municipío": "Macapá", "Status": "Concluída", "Executado": 298.86, "FaltaExe": 51.14 }, "geometry": { "type": "MultiLineString", "coordinates": [ [ [ -51.115060410662494, -0.050443942008481 ], [ -51.115086022418254, -0.050437215606055 ], [ -51.115162115367177, -0.0504465576328 ], [ -51.115430110794932, -0.050351640787287 ], [ -51.115679546984055, -0.050265692451145 ], [ -51.115966844230122, -0.05028587100807 ] ] ] } },
{ "type": "Feature", "properties": { "Nome": "30 DE JULHO", "Tamannho": 210, "Bairro": "Laurindo Banha", "Municipío": "Macapá", "Status": "Concluída", "Executado": 147.7, "FaltaExe": 62.3 }, "geometry": { "type": "MultiLineString", "coordinates": [ [ [ -51.08084972188469, 0.009538355243222 ], [ -51.080522336401884, 0.009261079654835 ], [ -51.080392421525723, 0.009142247256001 ], [ -51.080077656340478, 0.008856003172869 ], [ -51.079880928100238, 0.008679623005009 ] ] ] } },
{ "type": "Feature", "properties": { "Nome": "CABO MAAURICIO", "Tamannho": 150, "Bairro": "Zerão", "Municipío": "Macapá", "Status": "Concluída", "Executado": 130.7, "FaltaExe": 19.3 }, "geometry": { "type": "MultiLineString", "coordinates": [ [ [ -51.08916863151638, 0.001265207755697 ], [ -51.089726151675499, 0.001251755011863 ], [ -51.090128516418972, 0.001245776009379 ] ] ] } },
{ "type": "Feature", "properties": { "Nome": "WILSON DE CARVALHO", "Tamannho": 81, "Bairro": "Zerão", "Municipío": "Macapá", "Status": "Em Execução", "Executado": 0.0, "FaltaExe": 81.0 }, "geometry": { "type": "MultiLineString", "coordinates": [ [ [ -51.09331996671839, -0.004088228822714 ], [ -51.093515952479507, -0.004094207787783 ], [ -51.093578311586953, -0.004112144744496 ], [ -51.093740148313124, -0.004119618460362 ], [ -51.093879713930235, -0.004131576419742 ], [ -51.093973252586899, -0.004128586914638 ], [ -51.094020764269558, -0.003989575439465 ] ] ] } },
{ "type": "Feature", "properties": { "Nome": "BOM SOSSEGO", "Tamannho": 105, "Bairro": "Congós", "Municipío": "Macapá", "Status": "Não Iniciada", "Executado": 0.0, "FaltaExe": 105.0 }, "geometry": { "type": "MultiLineString", "coordinates": [ [ [ -51.098521013661404, 0.0090378906993 ], [ -51.098688789307396, 0.0089676375549 ], [ -51.098861019175359, 0.008903363397013 ], [ -51.09886100757582, 0.008903340041598 ], [ -51.099116394501124, 0.008830120736838 ] ] ] } },
{ "type": "Feature", "properties": { "Nome": "ATALAIA", "Tamannho": 900, "Bairro": null, "Municipío": null, "Status": "Concluída", "Executado": 829.9, "FaltaExe": 70.1 }, "geometry": { "type": "MultiLineString", "coordinates": [ [ [ -51.144775455356637, -0.045444988452566 ], [ -51.144967501213593, -0.045376268611094 ], [ -51.145048492910604, -0.04533852615715 ], [ -51.145076786975146, -0.045336389744019 ], [ -51.14507431093854, -0.045182572112379 ], [ -51.145079262017205, -0.044988875819292 ], [ -51.145086335246511, -0.044842891474134 ], [ -51.145106847806396, -0.044516741074466 ], [ -51.145107554941241, -0.044405650557859 ], [ -51.145121701702315, -0.044265363148604 ], [ -51.145128067503023, -0.044077363802794 ], [ -51.145137970120061, -0.043918561316312 ], [ -51.145033989401512, -0.043909303976535 ], [ -51.144954765479739, -0.043633002078645 ], [ -51.144925763842011, -0.043519063143989 ], [ -51.144959009312416, -0.043487729857226 ], [ -51.144810111461695, -0.043321450429221 ], [ -51.144766963083143, -0.04336132915932 ], [ -51.144743620411127, -0.043326791447353 ], [ -51.14477545112328, -0.043266261296803 ], [ -51.144753876820602, -0.043226382691119 ], [ -51.144768731028705, -0.043132382994453 ], [ -51.144798439795039, -0.043129534462768 ], [ -51.14481329356552, -0.042802671952479 ], [ -51.144808341633528, -0.04255129406184 ], [ -51.144765192694067, -0.042289946581035 ] ] ] } },
{ "type": "Feature", "properties": { "Nome": null, "Tamannho": null, "Bairro": null, "Municipío": null, "Status": "Concluída", "Executado": null, "FaltaExe": null }, "geometry": { "type": "MultiLineString", "coordinates": [ [ [ -51.144927532223996, -0.043520487377955 ], [ -51.144657324565117, -0.043883668437944 ], [ -51.144617713008437, -0.043956304622736 ], [ -51.14460144412454, -0.044063122459947 ] ] ] } },
{ "type": "Feature", "properties": { "Nome": null, "Tamannho": null, "Bairro": null, "Municipío": null, "Status": "Concluída", "Executado": null, "FaltaExe": null }, "geometry": { "type": "MultiLineString", "coordinates": [ [ [ -51.144957948286219, -0.043488441977969 ], [ -51.145056269984345, -0.043389457290048 ], [ -51.145059099221804, -0.043300442448465 ], [ -51.145056269409984, -0.04308680684719 ], [ -51.145078904314886, -0.042901655944817 ] ] ] } },
{ "type": "Feature", "properties": { "Nome": "IGARAPÉ DA FORTALEZA", "Tamannho": 500, "Bairro": null, "Municipío": "SANTANA", "Status": "Concluída", "Executado": 600.0, "FaltaExe": null }, "geometry": { "type": "MultiLineString", "coordinates": [ [ [ -51.138550764959625, -0.048331218602486 ], [ -51.138471541185545, -0.048155325398822 ], [ -51.138403635081332, -0.047997947262071 ], [ -51.138327240742008, -0.047834160071497 ], [ -51.138174098392518, -0.047507297806497 ], [ -51.13806658052868, -0.047322147107726 ], [ -51.137844471350142, -0.046984603188546 ], [ -51.137681072544197, -0.046726816465277 ], [ -51.137587701800399, -0.046580120152134 ], [ -51.137338713141517, -0.046182046161175 ], [ -51.137106700954199, -0.045793229674401 ], [ -51.137031721370107, -0.045647957555834 ], [ -51.136847809430613, -0.045421504085059 ], [ -51.136754438782987, -0.045321807610805 ], [ -51.136717656370926, -0.045263413927199 ], [ -51.136637017884048, -0.04506971772642 ], [ -51.136588917650485, -0.044908778934737 ], [ -51.136545061572086, -0.044770627940829 ], [ -51.136523840807641, -0.044659537424232 ], [ -51.136506863998505, -0.044462992625311 ] ] ] } },
{ "type": "Feature", "properties": { "Nome": "BOA ESPERANÇA", "Tamannho": 280, "Bairro": null, "Municipío": "", "Status": "Em Execução", "Executado": 185.0, "FaltaExe": null }, "geometry": { "type": "MultiLineString", "coordinates": [ [ [ -52.536870151322546, -0.853216871395804 ], [ -52.536982518202706, -0.853030318467806 ], [ -52.537056012751208, -0.852900018248114 ], [ -52.537133046283529, -0.852777547090093 ], [ -52.537210078967931, -0.852652940355142 ], [ -52.537321039966983, -0.852487743885718 ], [ -52.537432002092821, -0.852325394875521 ], [ -52.537605155252841, -0.852061224709481 ], [ -52.537716812410288, -0.851868265417691 ], [ -52.537924595403318, -0.851549268082551 ], [ -52.538005867179038, -0.85141469366201 ], [ -52.538095617434223, -0.851260895592281 ], [ -52.538121050617171, -0.85119752973123 ] ] ] } },
{ "type": "Feature", "properties": { "Nome": "PASSAGEM AGUIAR", "Tamannho": 280, "Bairro": null, "Municipío": "", "Status": "Em Execução", "Executado": 145.0, "FaltaExe": null }, "geometry": { "type": "MultiLineString", "coordinates": [ [ [ -52.535618811572924, -0.852344631575085 ], [ -52.535741783445452, -0.852150955742683 ], [ -52.535789488055499, -0.85207583515507 ], [ -52.5358937379563, -0.851928081957135 ], [ -52.535985610591084, -0.851776062565751 ], [ -52.536114239297099, -0.851580960794098 ], [ -52.536240041553071, -0.851391555070118 ], [ -52.536413893546403, -0.851105672819977 ], [ -52.536535458942971, -0.850931929797962 ], [ -52.536665495226707, -0.850719742863506 ], [ -52.536840755790202, -0.850419266977117 ] ] ] } },
{ "type": "Feature", "properties": { "Nome": "PASSAGEM NOSSA SRA DA PAZ", "Tamannho": 270, "Bairro": null, "Municipío": "", "Status": "Em Execução", "Executado": 125.0, "FaltaExe": null }, "geometry": { "type": "MultiLineString", "coordinates": [ [ [ -52.534230939181434, -0.851351428390932 ], [ -52.534353910980109, -0.851157040670768 ], [ -52.534425288759934, -0.851038131050976 ], [ -52.534481819503611, -0.850928481595124 ], [ -52.534568041505871, -0.850793193208236 ], [ -52.534637298601851, -0.850676420044683 ], [ -52.534766624852963, -0.850456402798965 ], [ -52.534850017025533, -0.850318268126113 ], [ -52.534951077621741, -0.850152363761811 ], [ -52.534994186653009, -0.850079736557335 ], [ -52.535054259462711, -0.849985746699379 ], [ -52.535168741493187, -0.849782108294013 ], [ -52.535266977883282, -0.849627594895889 ], [ -52.535355318032927, -0.849483763400216 ], [ -52.535409026543917, -0.849390487976922 ], [ -52.535450706332369, -0.849280132677769 ], [ -52.535478265656558, -0.849228155721824 ], [ -52.535541162670704, -0.849122774978655 ] ] ] } },
{ "type": "Feature", "properties": { "Nome": "1° DE MAIO", "Tamannho": 260, "Bairro": null, "Municipío": "", "Status": "Concluída", "Executado": 260.0, "FaltaExe": null }, "geometry": { "type": "MultiLineString", "coordinates": [ [ [ -52.532897927707246, -0.85049630288443 ], [ -52.533000389060852, -0.85029551656738 ], [ -52.533072470765546, -0.850168064289286 ], [ -52.533127590913125, -0.850067669587699 ], [ -52.533201796393165, -0.849945911376521 ], [ -52.533278126208593, -0.849831270951763 ], [ -52.533344551066818, -0.849705244686619 ], [ -52.533449852079094, -0.849532219951124 ], [ -52.533496140106585, -0.849451049101322 ], [ -52.533569285523058, -0.849331071005586 ], [ -52.533625115233171, -0.84923672689132 ], [ -52.533707097260148, -0.849108914788511 ], [ -52.533749495259684, -0.849026321782715 ], [ -52.533821924662419, -0.848883920322934 ], [ -52.533849833556474, -0.848821621195861 ], [ -52.533866059606481, -0.848722665808749 ], [ -52.533895016504658, -0.848627976516324 ], [ -52.533926817812912, -0.848573150397825 ], [ -52.533997485735469, -0.848447122504699 ] ] ] } },
{ "type": "Feature", "properties": { "Nome": "PASSAGEM SÃO JOÃO", "Tamannho": 250, "Bairro": null, "Municipío": "", "Status": "Em Execução", "Executado": 135.0, "FaltaExe": null }, "geometry": { "type": "MultiLineString", "coordinates": [ [ [ -52.531877928476895, -0.84986066073272 ], [ -52.531945768897941, -0.849737481296009 ], [ -52.532055303423512, -0.849539895511545 ], [ -52.532118898264059, -0.84941031101752 ], [ -52.53217967337288, -0.849303507278114 ], [ -52.532253877262143, -0.849177477878777 ], [ -52.532335145345208, -0.849032225362672 ], [ -52.532400158186412, -0.84891189455092 ], [ -52.532460225279422, -0.848802955528253 ], [ -52.532553511154632, -0.84864702029576 ], [ -52.532627004225937, -0.848511736997527 ], [ -52.532730890456861, -0.848337289119603 ], [ -52.532773995693695, -0.848254695819741 ], [ -52.532819932716059, -0.848179931886548 ], [ -52.532888481720313, -0.848060311572635 ], [ -52.532920988282875, -0.848000502122935 ], [ -52.532939349928391, -0.84793713899903 ], [ -52.532981742110742, -0.847839596875262 ], [ -52.533011423611931, -0.847789042774948 ], [ -52.533056662420073, -0.847737058748903 ] ] ] } },
{ "type": "Feature", "properties": { "Nome": "RUA SÃO JORGE", "Tamannho": 150, "Bairro": null, "Municipío": "", "Status": "Em Execução", "Executado": 0.0, "FaltaExe": null }, "geometry": { "type": "MultiLineString", "coordinates": [ [ [ -52.511538161550597, -0.84476141639887 ], [ -52.511476689512122, -0.844898119531359 ], [ -52.511406026306098, -0.845040521231853 ], [ -52.511307111582809, -0.845275477128237 ], [ -52.510684718535977, -0.845088499025391 ], [ -52.510616110262994, -0.845058627332218 ], [ -52.510558816362554, -0.845027327465676 ], [ -52.510510004529415, -0.844985346219937 ] ] ] } },
{ "type": "Feature", "properties": { "Nome": null, "Tamannho": null, "Bairro": null, "Municipío": null, "Status": "Concluída", "Executado": null, "FaltaExe": null }, "geometry": { "type": "MultiLineString", "coordinates": [ [ [ -52.511307201022532, -0.845275305030012 ], [ -52.511789465069256, -0.845417662112202 ] ] ] } }
]
}
